{"epoch":1784762836,"count":18316,"objects":[{"id":"37158","name":"QZS-1 (MICHIBIKI)","type":"PAYLOAD","l1":"1 37158U 10045A   26203.50044575 -.00000047  00000-0  00000-0 0  9999","l2":"2 37158  44.2722 116.0053 0006735  37.3321 141.6761  0.87715840 56707"},{"id":"42738","name":"QZS-2","type":"PAYLOAD","l1":"1 42738U 17028A   26203.44061192 -.00000120  00000-0  00000-0 0  9996","l2":"2 42738  39.3767 242.6339 0756705 269.6876  88.9804  1.00274888  7983"},{"id":"42917","name":"QZS-3","type":"PAYLOAD","l1":"1 42917U 17048A   26203.52822449 -.00000344  00000-0  00000-0 0  9994","l2":"2 42917   0.0590 203.2900 0002850 283.6707 130.4854  1.00269245 32619"},{"id":"42965","name":"QZS-4","type":"PAYLOAD","l1":"1 42965U 17062A   26202.25726799 -.00000358  00000-0  00000-0 0  9998","l2":"2 42965  40.0879 343.0509 0746939 268.6822 279.3148  1.00289434 32147"},{"id":"49336","name":"QZS-1R","type":"PAYLOAD","l1":"1 49336U 21096A   26200.56101544 -.00000322  00000-0  00000-0 0  9997","l2":"2 49336  37.5263  79.1015 0755512 272.3091 279.1178  1.00244085 17338"},{"id":"62876","name":"QZS-6","type":"PAYLOAD","l1":"1 62876U 25023A   26203.59193914 -.00000230  00000-0  00000-0 0  9991","l2":"2 62876   0.0176  52.2260 0002059  62.8136 128.8871  1.00273977  5303"}]}